              M50 Cartesian                         M50 Keplerian  
    -----------------------------------       --------------------------------
     X    =         619731.97                 A    =         6785410.25  meter
     Y    =        6137659.64  meter          E    =           .0014885
     Z    =        2807293.48                 I    =           51.98221
     XDOT =      -5401.852113                 Wp   =           71.10088
     YDOT =      -1813.176416  meter/sec      RA   =           63.39359  deg
     ZDOT =       5139.221003                 TA   =          320.61835
                                              MA   =          320.72648
                                              Ha   =            221.221  n.mi
                                              Hp   =            213.981
 
              M50 Cartesian                         J2K Cartesian  
    -----------------------------------       --------------------------------
     X    =        2033241.38                 X    =          537416.45
     Y    =       20136678.62  feet           Y    =         6144130.01  meter
     Z    =        9210280.44                 Z    =         2810103.24
     XDOT =     -17722.611920                 XDOT =       -5406.139373
     YDOT =      -5948.741521  feet/sec       YDOT =       -1873.606817  meter/sec
     ZDOT =      16860.961297                 ZDOT =        5112.969985
 
              TDR Cartesian                         TDR Cartesian  
    -----------------------------------       --------------------------------
     X    =       16670365.54                 X    =         5081127.42
     Y    =      -11467978.78  feet           Y    =        -3495439.93  meter
     Z    =        9221363.12                 Z    =         2810671.48
     XDOT =       2582.958678                 XDOT =         787.285805
     YDOT =      17267.106102  feet/sec       YDOT =        5263.013940  meter/sec
     ZDOT =      16747.185533                 ZDOT =        5104.542150
  
  
    The mean element set is posted at the UTC for which position is
    just north of the next ascending node relative to the above
    vector time
 
 
    TWO LINE MEAN ELEMENT SET
  
    ISS
    1 25544U 98067A   16095.85373816  .00016717  00000-0  10270-3 0  9177
    2 25544  51.6419  63.8004 0002627  20.3398 339.7859 15.54324418 33570
  
  
    Satellite: ISS
    Catalog Number: 25544
    Epoch time:      16095.85373816   =   yrday.fracday
    Element set:     917
    Inclination:       51.6419  deg
    RA of node:        63.8004  deg
    Eccentricity:     .0002627     
    Arg of perigee:    20.3398  deg
    Mean anomaly:     339.7859  deg
    Mean motion:   15.54324418  rev/day
    Decay rate:    1.67170E-04  rev/day^2
    Epoch rev:            3357
    Checksum:              331
 
 
    Coasting Arc #19 (Orbit 3371)
    ---------------------------------------
 
    Vector Time (GMT): 2016/096/19:05:00.000
    Vector Time (MET): N/A
    Weight (LBS)     : 917037.0
 
              M50 Cartesian                         M50 Keplerian  
    -----------------------------------       --------------------------------
     X    =         543334.61                 A    =         6781418.71  meter
     Y    =       -5335480.91  meter          E    =           .0009607
     Z    =       -4160855.17                 I    =           51.95373
     XDOT =       5646.253881                 Wp   =           58.63020
     YDOT =       3527.330536  meter/sec      RA   =           58.43037  deg
     ZDOT =      -3787.380330                 TA   =          172.48213
                                              MA   =          172.46772
                                              Ha   =            221.205  n.mi
                                              Hp   =            213.971
 
              M50 Cartesian                         J2K Cartesian  
    -----------------------------------       --------------------------------
     X    =        1782593.87                 X    =          623168.63
     Y    =      -17504858.62  feet           Y    =        -5328959.19  meter
     Z    =      -13651099.62                 Z    =        -4158021.11
     XDOT =      18524.454991                 XDOT =        5624.788287
     YDOT =      11572.606745  feet/sec       YDOT =        3590.350148  meter/sec
     ZDOT =     -12425.788483                 ZDOT =       -3760.004774
 
              TDR Cartesian                         TDR Cartesian  
    -----------------------------------       --------------------------------
     X    =      -16106790.21                 X    =        -4909349.66
     Y    =        7108601.93  feet           Y    =         2166701.87  meter
     Z    =      -13637790.33                 Z    =        -4156798.49
     XDOT =       1271.160720                 XDOT =         387.449788
     YDOT =     -20721.612209  feet/sec       YDOT =       -6315.947401  meter/sec
     ZDOT =     -12307.450040                 ZDOT =       -3751.310772
  
  
    The mean element set is posted at the UTC for which position is
    just north of the next ascending node relative to the above
    vector time
 
 
    TWO LINE MEAN ELEMENT SET
  
    ISS
    1 25544U 98067A   16096.81814347  .00016717  00000-0  10270-3 0  9184
    2 25544  51.6418  58.9905 0002602  22.2498 337.8767 15.54333577 33729
  
  
    Satellite: ISS
    Catalog Number: 25544
    Epoch time:      16096.81814347   =   yrday.fracday
    Element set:     918
    Inclination:       51.6418  deg
    RA of node:        58.9905  deg
    Eccentricity:     .0002602     
    Arg of perigee:    22.2498  deg
    Mean anomaly:     337.8767  deg
    Mean motion:   15.54333577  rev/day
    Decay rate:    1.67170E-04  rev/day^2
    Epoch rev:            3372
    Checksum:              337
 
 
    Coasting Arc #20 (Orbit 3387)
    ---------------------------------------
 
    Vector Time (GMT): 2016/097/19:05:00.000
    Vector Time (MET): N/A
    Weight (LBS)     : 917037.0
 
              M50 Cartesian                         M50 Keplerian  
    -----------------------------------       --------------------------------
     X    =       -1805122.70                 A    =         6778116.33  meter
     Y    =        4172312.41  meter          E    =           .0006311
     Z    =        5022440.61                 I    =           51.92470
     XDOT =      -5580.158045                 Wp   =           98.15509
     YDOT =      -4859.932058  meter/sec      RA   =           53.45590  deg
     ZDOT =       2028.693966                 TA   =          332.20248
                                              MA   =          332.23619
                                              Ha   =            221.437  n.mi
                                              Hp   =            213.837
 
              M50 Cartesian                         J2K Cartesian  
    -----------------------------------       --------------------------------
     X    =       -5922318.58                 X    =        -1876041.45
     Y    =       13688688.99  feet           Y    =         4151730.50  meter
     Z    =       16477823.53                 Z    =         5013498.86
     XDOT =     -18307.605134                 XDOT =       -5535.252952
     YDOT =     -15944.658982  feet/sec       YDOT =       -4922.081733  meter/sec
     ZDOT =       6655.820098                 ZDOT =        2001.696477
 
              TDR Cartesian                         TDR Cartesian  
    -----------------------------------       --------------------------------
     X    =       14842821.14                 X    =         4524091.88
     Y    =       -1857344.78  feet           Y    =         -566118.69  meter
     Z    =       16438177.00                 Z    =         5010356.35
     XDOT =      -4393.916066                 XDOT =       -1339.265617
     YDOT =      22850.932938  feet/sec       YDOT =        6964.964359  meter/sec
     ZDOT =       6539.386481                 ZDOT =        1993.204999
  
  
    The mean element set is posted at the UTC for which position is
    just north of the next ascending node relative to the above
    vector time
 
 
    TWO LINE MEAN ELEMENT SET
  
    ISS
    1 25544U 98067A   16097.84683849  .00016717  00000-0  10270-3 0  9190
    2 25544  51.6416  53.8607 0002704  30.1334 329.9973 15.54315309 33881
  
  
    Satellite: ISS
    Catalog Number: 25544
    Epoch time:      16097.84683849   =   yrday.fracday
    Element set:     919
    Inclination:       51.6416  deg
    RA of node:        53.8607  deg
    Eccentricity:     .0002704     
    Arg of perigee:    30.1334  deg
    Mean anomaly:     329.9973  deg
    Mean motion:   15.54315309  rev/day
    Decay rate:    1.67170E-04  rev/day^2
    Epoch rev:            3388
    Checksum:              335
 
             </PRE>
           </TD>
        </TR>
    </TABLE>
    
    <table align="center" border="0" width="600" cellpadding="0" cellspacing="0">
      <tr>
        <td align="center" valign="top"><hr size="1" width="600" noshade="noshade" />
        <font face="Arial,helvetica" size="-2">Curator: <a href="/cgi-bin/comment.cgi?jsc-hsfwebma@mail.nasa.gov">Kim 
          Dismukes</a> | Responsible NASA Official: <a href="/cgi-bin/comment.cgi?jsc-hsfwebma@mail.nasa.gov">Amiko Kauderer</a> | Updated: 06/08/2009<br />
        <a href="http://www.nasa.gov/about/highlights/HP_Privacy.html">Privacy Policy and Important Notices</a></font></td>
      </tr>
    </table>
    </body>
    </html>
